[{"OBJECT_NAME":"LARETS","OBJECT_ID":"2003-042F","EPOCH":"2026-03-09T22:26:44.443104","MEAN_MOTION":14.6384865,"ECCENTRICITY":0.00120448,"INCLINATION":98.4017,"RA_OF_ASC_NODE":229.12,"ARG_OF_PERICENTER":351.8104,"MEAN_ANOMALY":8.2899,"EPHEMERIS_TYPE":0,"CLASSIFICATION_TYPE":"U","NORAD_CAT_ID":27944,"ELEMENT_SET_NO":999,"REV_AT_EPOCH":19884,"BSTAR":3.0475392e-5,"MEAN_MOTION_DOT":1.09e-6,"MEAN_MOTION_DDOT":0},{"OBJECT_NAME":"FENGYUN 1C DEB","OBJECT_ID":"1999-025CTX","EPOCH":"2026-03-06T07:03:32.315328","MEAN_MOTION":14.57368739,"ECCENTRICITY":0.00515304,"INCLINATION":99.0408,"RA_OF_ASC_NODE":86.6531,"ARG_OF_PERICENTER":150.6362,"MEAN_ANOMALY":209.7747,"EPHEMERIS_TYPE":0,"CLASSIFICATION_TYPE":"U","NORAD_CAT_ID":32177,"ELEMENT_SET_NO":999,"REV_AT_EPOCH":72255,"BSTAR":0.0013244862,"MEAN_MOTION_DOT":6.061e-5,"MEAN_MOTION_DDOT":0}]
